[{"OBJECT_NAME":"PROTOMETHEE","OBJECT_ID":"2023-174BT","EPOCH":"2026-03-09T23:28:08.029344","MEAN_MOTION":15.30202663,"ECCENTRICITY":0.00088339,"INCLINATION":97.3826,"RA_OF_ASC_NODE":147.9552,"ARG_OF_PERICENTER":148.5993,"MEAN_ANOMALY":211.5776,"EPHEMERIS_TYPE":0,"CLASSIFICATION_TYPE":"U","NORAD_CAT_ID":58321,"ELEMENT_SET_NO":999,"REV_AT_EPOCH":12979,"BSTAR":0.00015715731,"MEAN_MOTION_DOT":4.52e-5,"MEAN_MOTION_DDOT":0},{"OBJECT_NAME":"STARLINK-34141","OBJECT_ID":"2025-101AC","EPOCH":"2026-03-08T20:03:05.090976","MEAN_MOTION":15.27581531,"ECCENTRICITY":9.451e-5,"INCLINATION":42.9999,"RA_OF_ASC_NODE":2.8639,"ARG_OF_PERICENTER":285.9629,"MEAN_ANOMALY":74.1118,"EPHEMERIS_TYPE":0,"CLASSIFICATION_TYPE":"U","NORAD_CAT_ID":64020,"ELEMENT_SET_NO":999,"REV_AT_EPOCH":4692,"BSTAR":0.0010999891,"MEAN_MOTION_DOT":0.00030132,"MEAN_MOTION_DDOT":0}]
